ONEWEB-0235             
1 48771U 21045E   25046.89378827 -.00000032  00000+0 -11989-3 0  9995
2 48771  87.9123 356.0338 0002234  95.4710 264.6675 13.15546028180442
ONEWEB-0242             
1 48772U 21045F   25046.88745410 -.00000055  00000+0 -18084-3 0  9999
2 48772  87.9123 356.0214 0001871  88.2528 271.8817 13.15546650180482
ONEWEB-0241             
1 48773U 21045G   25046.87478087 -.00000009  00000+0 -58431-4 0  9992
2 48773  87.9129 356.0927 0002267  82.6930 277.4458 13.15546923180391
ONEWEB-0243             
1 48774U 21045H   25046.90647686  .00000142  00000+0  34265-3 0  9994
2 48774  87.9131 356.0486 0002104  94.8428 265.2942 13.15547100180427
ONEWEB-0222             
1 48775U 21045J   25046.88983963 -.00000031  00000+0 -11526-3 0  9997
2 48775  87.9123 356.0290 0002030  82.2444 277.8916 13.15547177180467
ONEWEB-0244             
1 48776U 21045K   25047.14413385 -.00008060  00000+0 -21449-1 0  9997
2 48776  87.9120 355.9580 0001945  82.2467 277.8884 13.15588353182180
ONEWEB-0247             
1 48777U 21045L   25046.91281708  .00000222  00000+0  55582-3 0  9991
2 48777  87.9128 356.0637 0002518 102.3178 257.8234 13.15547793180474
ONEWEB-0245             
1 48778U 21045M   25046.90806129  .00000167  00000+0  40968-3 0  9991
2 48778  87.9121 356.0387 0002085  79.7909 280.3456 13.15547110180445
